IRIDIUM 119             
1 42959U 17061E   25304.56503066  .00000003  00000+0 -59939-5 0  9992
2 42959  86.3940 120.8482 0002154  83.8141 276.3300 14.34217531422047
IRIDIUM 107             
1 42960U 17061F   25304.72360594  .00000171  00000+0  54045-4 0  9996
2 42960  86.3936 120.8017 0001993  76.7091 283.4326 14.34216199422072
IRIDIUM 132             
1 42961U 17061G   25304.72993670  .00000125  00000+0  37746-4 0  9992
2 42961  86.3935 120.7801 0002008  86.7242 273.4184 14.34218029422074
IRIDIUM 136             
1 42962U 17061H   25304.76165067  .00000063  00000+0  15338-4 0  9992
2 42962  86.3936 120.7724 0002136  84.8632 275.2807 14.34217705422098
IRIDIUM 139             
1 42963U 17061J   25304.55868750  .00000078  00000+0  20664-4 0  9993
2 42963  86.3937 120.9155 0001925  83.7886 276.3529 14.34218037422074
IRIDIUM 125             
1 42964U 17061K   25304.75530850  .00000081  00000+0  22016-4 0  9990
2 42964  86.3938 120.8902 0002279  75.1024 285.0424 14.34217942422117
IRIDIUM 135             
1 43070U 17083A   25304.79920149  .00000352  00000+0  11873-3 0  9990
2 43070  86.3971  57.4722 0002042  99.7761 260.3666 14.34219611411416
IRIDIUM 138             
1 43071U 17083B   25304.82457453  .00000043  00000+0  84002-5 0  9991
2 43071  86.3985  57.1216 0002471  90.3694 269.7785 14.34217962411406
